STARLINK-4421           
1 53488U 22099Z   23292.21850314  .00027673  00000+0  21494-2 0  9998
2 53488  97.6568  51.5245 0000251  35.8812 324.2429 15.01282212 65324
STARLINK-4392           
1 53489U 22099AA  23291.61888046  .00004912  00000+0  38673-3 0  9994
2 53489  97.6569  50.9145 0000613  99.4238 260.7055 15.01266329 64990
STARLINK-4387           
1 53490U 22099AB  23291.61494975  .00022198  00000+0  17265-2 0  9999
2 53490  97.6565  50.9301 0001513  71.7053 288.4336 15.01280006 64997
STARLINK-4450           
1 53491U 22099AC  23291.33746128  .00009330  00000+0  72971-3 0  9998
2 53491  97.6539  50.6622 0001979  83.6626 276.4823 15.01274572 64951
STARLINK-4451           
1 53492U 22099AD  23292.20924401  .00042715  00000+0  33043-2 0  9998
2 53492  97.6551  51.5209 0003279  80.9206 279.2389 15.01324674 65325
STARLINK-4361           
1 53493U 22099AE  23292.20739904  .00004497  00000+0  35438-3 0  9997
2 53493  97.6562  51.5070 0002021  90.9933 269.1523 15.01271183 65320
STARLINK-4340           
1 53494U 22099AF  23292.21134528  .00003114  00000+0  24684-3 0  9996
2 53494  97.6561  51.5135 0002068  91.6025 268.5436 15.01270949 65328
STARLINK-4429           
1 53495U 22099AG  23292.06854133  .00002741  00000+0  21784-3 0  9994
2 53495  97.6567  51.3765 0001795  75.0398 285.1025 15.01266891 65316
STARLINK-4465           
1 53496U 22099AH  23291.60567832  .00012860  00000+0  10036-2 0  9991
2 53496  97.6552  50.9208 0002118  87.5177 272.6290 15.01273739 64998
STARLINK-4453           
1 53497U 22099AJ  23291.79822785  .00006137  00000+0  48181-3 0  9996
2 53497  97.6566  51.1089 0001563  96.7828 263.3574 15.01274334 65021
STARLINK-4439           
1 53498U 22099AK  23291.59851354  .00006780  00000+0  53167-3 0  9993
2 53498  97.6559  50.9226 0002090  92.0839 268.0624 15.01280046 65239
STARLINK-4454           
1 53499U 22099AL  23291.80378462  .00002572  00000+0  20469-3 0  9996
2 53499  97.6578  51.1017 0001590  69.6000 290.5395 15.01270082 65027
STARLINK-4455           
1 53500U 22099AM  23291.80007825  .00005807  00000+0  45613-3 0  9993
2 53500  97.6568  51.1114 0001536  91.8610 268.2790 15.01274473 65020
STARLINK-4434           
1 53501U 22099AN  23291.58925537  .00006505  00000+0  51046-3 0  9991
2 53501  97.6571  50.9087 0000944  90.6467 269.4866 15.01269578 64992
STARLINK-4435           
1 53502U 22099AP  23291.79637797  .00005615  00000+0  44133-3 0  9993
2 53502  97.6564  51.1066 0001551  98.3728 261.7672 15.01268677 65029
STARLINK-4461           
1 53503U 22099AQ  23291.79082090  .00014560  00000+0  11354-2 0  9991
2 53503  97.6558  51.0981 0001148 103.7250 256.4102 15.01274359 65024
STARLINK-4448           
1 53504U 22099AR  23291.79452764  .00005637  00000+0  44300-3 0  9994
2 53504  97.6547  51.1033 0001726  90.7201 269.4221 15.01267303 65022
STARLINK-4446           
1 53505U 22099AS  23292.05372832  .00003991  00000+0  31510-3 0  9992
2 53505  97.6559  51.3579 0001324  98.4815 261.6559 15.01262463 65304
STARLINK-4437           
1 53506U 22099AT  23292.05928207  .00014617  00000+0  11396-2 0  9992
2 53506  97.6540  51.3555 0001094  93.0904 267.0445 15.01282086 65300
STARLINK-4444           
1 53507U 22099AU  23292.05187672  .00003799  00000+0  30018-3 0  9998
2 53507  97.6553  51.3543 0001166  98.9651 261.1705 15.01263495 65302
STARLINK-4443           
1 53508U 22099AV  23291.58901151  .00001724  00000+0  13872-3 0  9997
2 53508  97.6566  50.9010 0000903  93.6761 266.4566 15.01267272 64997
STARLINK-4402           
1 53509U 22099AW  23291.58345624  .00012285  00000+0  95915-3 0  9997
2 53509  97.6543  50.8859 0000175 193.7114 166.4105 15.01270257 64993
STARLINK-4441           
1 53510U 22099AX  23291.57443822  .00019896  00000+0  15486-2 0  9996
2 53510  97.6538  50.8972 0001663 256.3672 103.7367 15.01276363 65239
YAOGAN-35 04A           
1 53522U 22100A   23291.79845576 -.00086246  00000+0 -36107-2 0  9996
2 53522  35.0018  50.4472 0011564 160.2925 199.8238 15.23026897 64889
YAOGAN-35 04B           
1 53524U 22100C   23292.39613416  .00022967  00000+0  95992-3 0  9997
2 53524  35.0001  46.5203 0003559 314.0640 123.6520 15.22714723 64935
YAOGAN-35 04C           
1 53526U 22100E   23291.79512914  .00020029  00000+0  82391-3 0  9999
2 53526  34.9977  50.3499 0002411  37.3216 322.7666 15.23276247 64845
STARLINK-4511           
1 53527U 22101A   23291.66548143  .00001464  00000+0  11007-3 0  9998
2 53527  53.2187  33.2729 0001876  83.9413 276.1793 15.08846348 64367
STARLINK-4503           
1 53528U 22101B   23291.66916097  .00001694  00000+0  12449-3 0  9992
2 53528  53.2191  33.2568 0001672  77.6668 282.4512 15.08844915 64367
STARLINK-4478           
1 53529U 22101C   23291.99299908  .00001170  00000+0  91580-4 0  9997
2 53529  53.2204  31.8056 0001901  88.1312 271.9898 15.08844491 64412
STARLINK-4482           
1 53530U 22101D   23291.54406945  .00000623  00000+0  57232-4 0  9999
2 53530  53.2161  34.0418 0001364  90.7815 269.3333 15.08839866 64340
STARLINK-4487           
1 53531U 22101E   23291.59188147  .00000117  00000+0  25434-4 0  9993
2 53531  53.2188  33.6102 0001548  95.2706 264.8463 15.08840871 64351
STARLINK-4483           
1 53532U 22101F   23291.55875839  .00004222  00000+0  28314-3 0  9991
2 53532  53.2204  33.7589 0001102  82.6369 277.4748 15.08846183 64350
STARLINK-4493           
1 53533U 22101G   23292.01875638  .00001605  00000+0  11890-3 0  9994
2 53533  53.2174  31.6828 0001500 100.0093 260.1069 15.08850434 64428
STARLINK-4488           
1 53534U 22101H   23292.01521015  .00004529  00000+0  28931-3 0  9994
2 53534  53.2176  31.7869 0001356  95.1402 264.9746 15.10491602 64429
STARLINK-4138           
1 53535U 22101J   23292.01507242  .00004032  00000+0  27112-3 0  9990
2 53535  53.2172  31.7093 0001349  97.9966 262.1179 15.08859578 64429
STARLINK-4053           
1 53536U 22101K   23291.52751247  .00002011  00000+0  14437-3 0  9993
2 53536  53.2184  23.8321 0001595  90.1231 269.9944 15.08843124 64483
STARLINK-4120           
1 53537U 22101L   23291.55235602  .00003175  00000+0  21745-3 0  9991
2 53537  53.2185  33.7587 0001265  85.5265 274.5871 15.08843167 64352
STARLINK-4118           
1 53538U 22101M   23291.53024221  .00000837  00000+0  70657-4 0  9992
2 53538  53.2177  23.8852 0001459  82.9201 277.1957 15.08846781 64488
STARLINK-4123           
1 53539U 22101N   23291.54772094  .00001099  00000+0  87138-4 0  9995
2 53539  53.2177  33.8089 0001427  94.8055 265.3100 15.08842870 64356
STARLINK-4486           
1 53540U 22101P   23291.52656354  .00004271  00000+0  28625-3 0  9995
2 53540  53.2185  23.9002 0001246  96.0293 264.0841 15.08842666 64484
STARLINK-4485           
1 53541U 22101Q   23292.00404197  .00004928  00000+0  32740-3 0  9998
2 53541  53.2185  31.7635 0001699  80.2830 279.8354 15.08850988 64421
STARLINK-4489           
1 53542U 22101R   23291.51920482  .00001200  00000+0  93493-4 0  9997
2 53542  53.2170  23.9339 0001535  75.6251 284.4912 15.08841925 64483
STARLINK-4297           
1 53543U 22101S   23291.53392919  .00003498  00000+0  23769-3 0  9997
2 53543  53.2186  23.9376 0001388  80.9629 279.1520 15.08848075 64485
STARLINK-4303           
1 53544U 22101T   23291.64432212  .00002435  00000+0  17104-3 0  9997
2 53544  53.2201  23.3692 0001914  90.8123 269.3088 15.08845507 65177
STARLINK-4475           
1 53545U 22101U   23291.52288180  .00005837  00000+0  38439-3 0  9991
2 53545  53.2179  23.9165 0001333  79.6286 280.4857 15.08850356 64482
STARLINK-4477           
1 53546U 22101V   23291.92486445  .00003540  00000+0  24038-3 0  9999
2 53546  53.2186  11.6502 0001533  89.2536 270.8632 15.08844704 64694
STARLINK-4474           
1 53547U 22101W   23291.97920624  .00001182  00000+0  92320-4 0  9997
2 53547  53.2173  21.8693 0001498  71.3757 288.7398 15.08839696 64558
STARLINK-4513           
1 53548U 22101X   23291.56704010  .00001492  00000+0  11179-3 0  9998
2 53548  53.2170  23.7235 0001435  78.6888 281.4265 15.08845044 64495
STARLINK-4516           
1 53549U 22101Y   23291.97182655  .00001564  00000+0  11626-3 0  9996
2 53549  53.2188  21.8986 0001361 113.2459 246.8676 15.08854338 64559
STARLINK-4518           
1 53550U 22101Z   23291.56336192 -.00001196  00000+0 -57053-4 0  9998
2 53550  53.2162  23.7419 0001319  81.5801 278.5341 15.08840425 64492
STARLINK-4514           
1 53551U 22101AA  23291.96816429 -.00000299  00000+0 -70376-6 0  9997
2 53551  53.2188  21.9199 0001746  90.5730 269.5462 15.08839477 64557
STARLINK-4495           
1 53552U 22101AB  23291.55599949  .00000510  00000+0  50110-4 0  9994
2 53552  53.2193  23.7740 0001463  99.1548 260.9610 15.08848637 65148
STARLINK-4501           
1 53553U 22101AC  23291.54862661  .00000757  00000+0  65617-4 0  9999
2 53553  53.2184  23.6795 0001505  83.6814 276.4350 15.08842552 64499
STARLINK-4506           
1 53554U 22101AD  23291.54959948  .00002404  00000+0  16904-3 0  9990
2 53554  53.2174  23.8113 0001556  92.2965 267.8205 15.08847954 64498
STARLINK-4504           
1 53555U 22101AE  23291.95711503  .00001188  00000+0  92665-4 0  9996
2 53555  53.2178  21.9721 0001307  83.3038 276.8103 15.08850216 64552
STARLINK-4505           
1 53556U 22101AF  23291.54127990  .00001730  00000+0  12672-3 0  9995
2 53556  53.2172  23.8395 0001378  91.1109 269.0041 15.08847350 64492
STARLINK-4502           
1 53557U 22101AG  23291.55232014  .00002259  00000+0  15996-3 0  9990
2 53557  53.2177  23.7898 0001397  89.7579 270.3573 15.08848000 64498
STARLINK-4494           
1 53558U 22101AH  23291.94098403  .00005904  00000+0  38860-3 0  9991
2 53558  53.2180  16.7655 0001325  90.3487 269.7657 15.08850312 65285
STARLINK-4508           
1 53559U 22101AJ  23291.54495987  .00001845  00000+0  13393-3 0  9990
2 53559  53.2180  23.8210 0001521  92.0420 268.0746 15.08847226 64499
